{
    "links": {
        "self": "http://www.neowsapp.com/rest/v1/neo/3588058?api_key=iIulBulltgU6a56xZRHN4H3l9WmuAYTsLGpBGhQ2"
    },
    "id": "3588058",
    "neo_reference_id": "3588058",
    "name": "(2011 WK2)",
    "designation": "2011 WK2",
    "nasa_jpl_url": "http://ssd.jpl.nasa.gov/sbdb.cgi?sstr=3588058",
    "absolute_magnitude_h": 21.1,
    "estimated_diameter": {
        "kilometers": {
            "estimated_diameter_min": 0.160160338,
            "estimated_diameter_max": 0.358129403
        },
        "meters": {
            "estimated_diameter_min": 160.1603379786,
            "estimated_diameter_max": 358.1294030194
        },
        "miles": {
            "estimated_diameter_min": 0.0995189894,
            "estimated_diameter_max": 0.2225312253
        },
        "feet": {
            "estimated_diameter_min": 525.4604432536,
            "estimated_diameter_max": 1174.9652706022
        }
    },
    "is_potentially_hazardous_asteroid": false,
    "close_approach_data": [
        {
            "close_approach_date": "2011-10-05",
            "close_approach_date_full": "2011-Oct-05 08:47",
            "epoch_date_close_approach": 1317804420000,
            "relative_velocity": {
                "kilometers_per_second": "11.9105665341",
                "kilometers_per_hour": "42878.0395228104",
                "miles_per_hour": "26642.7462801596"
            },
            "miss_distance": {
                "astronomical": "0.3737669029",
                "lunar": "145.3953252281",
                "kilometers": "55914732.550336823",
                "miles": "34743803.7151932374"
            },
            "orbiting_body": "Earth"
        }
    ],
    "orbital_data": {
        "orbit_id": "13",
        "orbit_determination_date": "2019-12-18 10:32:56",
        "first_observation_date": "2011-11-16",
        "last_observation_date": "2011-11-18",
        "data_arc_in_days": 2,
        "observations_used": 23,
        "orbit_uncertainty": "9",
        "minimum_orbit_intersection": ".280741",
        "jupiter_tisserand_invariant": "4.877",
        "epoch_osculation": "2455882.5",
        "eccentricity": ".03152840677006761",
        "semi_major_axis": "1.31676914462972",
        "inclination": "23.0544238659823",
        "ascending_node_longitude": "29.38338843572353",
        "orbital_period": "551.9031703798989",
        "perihelion_distance": "1.27525351141556",
        "perihelion_argument": "349.3014426759238",
        "aphelion_distance": "1.35828477784388",
        "perihelion_time": "2455863.655586288997",
        "mean_anomaly": "12.29199124058549",
        "mean_motion": ".6522883348399617",
        "equinox": "J2000",
        "orbit_class": {
            "orbit_class_type": "AMO",
            "orbit_class_description": "Near-Earth asteroid orbits similar to that of 1221 Amor",
            "orbit_class_range": "1.017 AU < q (perihelion) < 1.3 AU"
        }
    },
    "is_sentry_object": false
}